NORAD_CAT_ID,OBJECT_NAME,OBJECT_TYPE,EPOCH,MEAN_MOTION,ECCENTRICITY,INCLINATION,RA_OF_ASC_NODE,ARG_OF_PERICENTER,MEAN_ANOMALY,BSTAR,MEAN_MOTION_DOT,MEAN_MOTION_DDOT,TLE_LINE0,TLE_LINE1,TLE_LINE2,SEMIMAJOR_AXIS,PERIOD,APOGEE,PERIGEE,DECAYED
54178.0,STARLINK-5164,PAYLOAD,2022-11-14 14:00:01,15.73257985,0.000248,53.217,57.0962,19.9536,25.1125,-0.00049139,-0.00069203,0.0,0 STARLINK-5164,1 54178U 22141X   22318.58334491 -.00069203  00000-0 -49139-3 0  9999,2 54178  53.2170  57.0962 0002480  19.9536  25.1125 15.73257985  2797,6727.73,91.53,351.26300000000015,347.926,0.0
54178.0,STARLINK-5164,PAYLOAD,2022-11-14 22:00:00,15.73268838,0.0002517,53.2168,55.4445,19.945,114.1012,-0.00065505,-0.00091843,0.0,0 STARLINK-5164,1 54178U 22141X   22318.91667824 -.00091843  00000-0 -65505-3 0  9995,2 54178  53.2168  55.4445 0002517  19.9450 114.1012 15.73268838  2847,6727.699000000001,91.529,351.25699999999995,347.871,0.0
54178.0,STARLINK-5164,PAYLOAD,2022-11-15 14:00:01,15.73246791,0.000263,53.2173,52.1476,18.2914,293.5979,-0.00052013,-0.00073147,0.0,0 STARLINK-5164,1 54178U 22141X   22319.58334491 -.00073147  00000-0 -52013-3 0  9997,2 54178  53.2173  52.1476 0002630  18.2914 293.5979 15.73246791  2943,6727.762,91.53,351.396,347.857,0.0
54178.0,STARLINK-5164,PAYLOAD,2022-11-15 22:00:00,15.73230411,0.0002583999999999,53.217,50.4971,12.8428,27.9927,-0.0003298,-0.00046719,0.0,0 STARLINK-5164,1 54178U 22141X   22319.91667824 -.00046719  00000-0 -32980-3 0  9999,2 54178  53.2170  50.4971 0002584  12.8428  27.9927 15.73230411  1302,6727.808000000001,91.531,351.412,347.935,0.0
54178.0,STARLINK-5164,PAYLOAD,2022-11-16 04:00:00,15.7317522,0.0002394,53.217,49.2588,12.9275,4.6306,0.00036178,0.00050408,0.0,0 STARLINK-5164,1 54178U 22141X   22320.16667824  .00050408  00000-0  36178-3 0  9999,2 54178  53.2170  49.2588 0002394  12.9275   4.6306 15.73175220  3044,6727.965999999999,91.535,351.441,348.22,0.0
54178.0,STARLINK-5164,PAYLOAD,2022-11-16 14:00:01,15.73264199,0.0002515,53.2172,47.1972,16.2451,202.5273,-0.00077691,-0.00108578,0.0,0 STARLINK-5164,1 54178U 22141X   22320.58335648 -.00108578  00000-0 -77691-3 0  9990,2 54178  53.2172  47.1972 0002515  16.2451 202.5273 15.73264199  1301,6727.712,91.529,351.269,347.885,0.0
54178.0,STARLINK-5164,PAYLOAD,2022-11-16 20:00:01,15.73169962,0.0002357,53.2168,45.9584,19.699,175.7467,0.00028195,0.00039085,0.0,0 STARLINK-5164,1 54178U 22141X   22320.83334491  .00039085  00000-0  28195-3 0  9992,2 54178  53.2168  45.9584 0002357  19.6990 175.7467 15.73169962  3142,6727.981,91.535,351.432,348.26,0.0
54178.0,STARLINK-5164,PAYLOAD,2022-11-16 22:00:08,15.73167047,0.0002228,53.2172,45.5445,22.4615,285.6717,0.00040651,0.0005673999999999,0.0,0 STARLINK-5164,1 54178U 22141X   22320.91675926  .00056740  00000-0  40651-3 0  9990,2 54178  53.2172  45.5445 0002228  22.4615 285.6717 15.73167047  1309,6727.989000000001,91.535,351.353,348.355,0.0
54178.0,STARLINK-5164,PAYLOAD,2022-11-17 14:00:01,15.73212388,0.0002933,53.2177,42.2503,12.1014,113.5242,-0.00031088,-0.00044058,0.0,0 STARLINK-5164,1 54178U 22141X   22321.58334491 -.00044058  00000-0 -31088-3 0  9998,2 54178  53.2177  42.2503 0002933  12.1014 113.5242 15.73212388  1306,6727.86,91.532,351.6980000000001,347.75199999999984,0.0
54178.0,STARLINK-5164,PAYLOAD,2022-11-17 20:00:01,15.73205051,0.0002929,53.2173,41.0125,9.3348,92.9839,-0.00013432,-0.00019438,0.0,0 STARLINK-5164,1 54178U 22141X   22321.83334491 -.00019438  00000-0 -13432-3 0  9993,2 54178  53.2173  41.0125 0002929   9.3348  92.9839 15.73205051  3305,6727.880999999999,91.533,351.716,347.775,0.0
54178.0,STARLINK-5164,PAYLOAD,2022-11-17 22:00:00,15.7322698,0.0002826,53.2175,40.5996,8.8481,205.6957,-0.00054167,-0.00076064,0.0,0 STARLINK-5164,1 54178U 22141X   22321.91667824 -.00076064  00000-0 -54167-3 0  9999,2 54178  53.2175  40.5996 0002826   8.8481 205.6957 15.73226980  1301,6727.818,91.532,351.585,347.782,0.0
54178.0,STARLINK-5164,PAYLOAD,2022-11-18 14:00:01,15.73223619,0.0002827,53.2174,37.2998,6.8823,25.4875,-0.00074801,-0.00104439,0.0,0 STARLINK-5164,1 54178U 22141X   22322.58334491 -.00104439  00000-0 -74801-3 0  9999,2 54178  53.2174  37.2998 0002827   6.8823  25.4875 15.73223619  1307,6727.828,91.532,351.595,347.791,0.0
54178.0,STARLINK-5164,PAYLOAD,2022-11-18 20:00:01,15.73260551,0.0003069,53.2175,36.0643,9.4719,359.5842,-0.0006428,-0.00090134,0.0,0 STARLINK-5164,1 54178U 22141X   22322.83334491 -.00090134  00000-0 -64280-3 0  9993,2 54178  53.2175  36.0643 0003069   9.4719 359.5842 15.73260551  3464,6727.723000000001,91.53,351.652,347.523,0.0
54178.0,STARLINK-5164,PAYLOAD,2022-11-18 22:00:00,15.73245097,0.0003,53.2178,35.6513,10.3819,110.9203,-0.00054188,-0.00076154,0.0,0 STARLINK-5164,1 54178U 22141X   22322.91667824 -.00076154  00000-0 -54188-3 0  9993,2 54178  53.2178  35.6513 0003000  10.3819 110.9203 15.73245097  1304,6727.767,91.531,351.65,347.61300000000006,0.0
54178.0,STARLINK-5164,PAYLOAD,2022-11-19 06:00:00,15.73232297,0.0002934,53.2181,34.0013,14.9591,195.2862,3.5449e-05,4.362e-05,0.0,0 STARLINK-5164,1 54178U 22141X   22323.25001157  .00004362  00000-0  35449-4 0  9992,2 54178  53.2181  34.0013 0002934  14.9591 195.2862 15.73232297  3529,6727.803000000001,91.531,351.642,347.694,0.0
54178.0,STARLINK-5164,PAYLOAD,2022-11-19 14:00:01,15.73181919,0.0003292,53.2182,32.3538,12.7494,286.4749,0.0004383999999999,0.0006132,0.0,0 STARLINK-5164,1 54178U 22141X   22323.58334491  .00061320  00000-0  43840-3 0  9998,2 54178  53.2182  32.3538 0003292  12.7494 286.4749 15.73181919  1304,6727.946999999999,91.534,352.027,347.597,0.0
54178.0,STARLINK-5164,PAYLOAD,2022-11-19 20:00:01,15.7325548,0.0003186,53.2178,31.1156,9.7101,266.1962,-0.00039652,-0.00056051,0.0,0 STARLINK-5164,1 54178U 22141X   22323.83334491 -.00056051  00000-0 -39652-3 0  9999,2 54178  53.2178  31.1156 0003186   9.7101 266.1962 15.73255480  3618,6727.736999999999,91.53,351.745,347.459,0.0
54178.0,STARLINK-5164,PAYLOAD,2022-11-19 22:00:00,15.73260679,0.0003114,53.218,30.7028,9.7223,18.4259,-0.00057809,-0.00081209,0.0,0 STARLINK-5164,1 54178U 22141X   22323.91667824 -.00081209  00000-0 -57809-3 0  9994,2 54178  53.2180  30.7028 0003114   9.7223  18.4259 15.73260679  1307,6727.722,91.53,351.682,347.492,0.0
54178.0,STARLINK-5164,PAYLOAD,2022-11-20 14:00:01,15.73135474,0.0003422,53.218,27.4057,12.4217,193.6305,0.00063455,0.00089156,0.0,0 STARLINK-5164,1 54178U 22141X   22324.58334491  .00089156  00000-0  63455-3 0  9990,2 54178  53.2180  27.4057 0003422  12.4217 193.6305 15.73135474  1300,6728.079000000002,91.537,352.246,347.642,0.0
54178.0,STARLINK-5164,PAYLOAD,2022-11-20 22:00:00,15.7320062,0.000323,53.218,25.7546,12.2103,282.7318,-0.00040717,-0.00057397,0.0,0 STARLINK-5164,1 54178U 22141X   22324.91667824 -.00057397  00000-0 -40717-3 0  9996,2 54178  53.2180  25.7546 0003230  12.2103 282.7318 15.73200620  3787,6727.893,91.533,351.932,347.585,0.0
54178.0,STARLINK-5164,PAYLOAD,2022-11-21 06:00:00,15.73182076,0.0003247,53.2182,24.1051,13.0329,10.8032,0.00021543,0.00029702,0.0,0 STARLINK-5164,1 54178U 22141X   22325.25001157  .00029702  00000-0  21543-3 0  9998,2 54178  53.2182  24.1051 0003247  13.0329  10.8032 15.73182076  3844,6727.946,91.534,351.996,347.62699999999984,0.0
54178.0,STARLINK-5164,PAYLOAD,2022-11-21 14:00:01,15.73181985,0.0003543999999999,53.2182,22.4576,12.3105,100.4537,0.00071601,0.00101028,0.0,0 STARLINK-5164,1 54178U 22141X   22325.58334491  .00101028  00000-0  71601-3 0  9996,2 54178  53.2182  22.4576 0003544  12.3105 100.4537 15.73181985  1304,6727.946999999999,91.534,352.196,347.427,0.0
54178.0,STARLINK-5164,PAYLOAD,2022-11-21 22:00:00,15.73256053,0.0003377,53.2181,20.8064,10.6234,191.0907,-0.00044772,-0.0006316,0.0,0 STARLINK-5164,1 54178U 22141X   22325.91667824 -.00063160  00000-0 -44772-3 0  9997,2 54178  53.2181  20.8064 0003377  10.6234 191.0907 15.73256053  1301,6727.735,91.53,351.872,347.32800000000015,0.0
54178.0,STARLINK-5164,PAYLOAD,2022-11-22 06:00:02,15.7325992,0.0003301,53.218,19.1572,8.5572,282.1797,-0.00063489,-0.00089047,0.0,0 STARLINK-5164,1 54178U 22141X   22326.25002315 -.00089047  00000-0 -63489-3 0  9991,2 54178  53.2180  19.1572 0003301   8.5572 282.1797 15.73259920  3995,6727.724,91.53,351.81,347.369,0.0
54178.0,STARLINK-5164,PAYLOAD,2022-11-22 14:00:01,15.73180584,0.0003593,53.2175,17.5094,5.7367,13.9544,0.00015218,0.00020776,0.0,0 STARLINK-5164,1 54178U 22141X   22326.58335648  .00020776  00000-0  15218-3 0  9994,2 54178  53.2175  17.5094 0003593   5.7367  13.9544 15.73180584  1306,6727.951,91.534,352.233,347.398,0.0
54178.0,STARLINK-5164,PAYLOAD,2022-11-22 20:00:01,15.73195987,0.0003437,53.2175,16.2709,4.8032,351.5097,-0.00028078,-0.0003985,0.0,0 STARLINK-5164,1 54178U 22141X   22326.83334491 -.00039850  00000-0 -28078-3 0  9990,2 54178  53.2175  16.2709 0003437   4.8032 351.5097 15.73195987  4097,6727.906999999997,91.533,352.084,347.459,0.0
54178.0,STARLINK-5164,PAYLOAD,2022-11-22 22:00:00,15.7315458,0.0003382,53.2176,15.8581,3.6855,104.8672,0.00032047,0.00044516,0.0,0 STARLINK-5164,1 54178U 22141X   22326.91667824  .00044516  00000-0  32047-3 0  9992,2 54178  53.2176  15.8581 0003382   3.6855 104.8672 15.73154580  1303,6728.025,91.536,352.165,347.61400000000015,0.0
54178.0,STARLINK-5164,PAYLOAD,2022-11-23 06:00:00,15.73199244,0.0003436,53.2178,14.209,6.1195,191.3137,0.00018617,0.0002559,0.0,0 STARLINK-5164,1 54178U 22141X   22327.25001157  .00025590  00000-0  18617-3 0  9999,2 54178  53.2178  14.2090 0003436   6.1195 191.3137 15.73199244  4157,6727.897,91.533,352.074,347.451,0.0
54178.0,STARLINK-5164,PAYLOAD,2022-11-23 14:00:01,15.73215257,0.0003733,53.2176,12.5611,4.4725,281.8981,-0.00010898,-0.00015906,0.0,0 STARLINK-5164,1 54178U 22141X   22327.58334491 -.00015906  00000-0 -10898-3 0  9990,2 54178  53.2176  12.5611 0003733   4.4725 281.8981 15.73215257  1304,6727.852,91.532,352.228,347.205,0.0
